*******************************************************************************
 Revised: Jan 23, 2020            Rhea  / (Saturn)                          605
                        http://ssd.jpl.nasa.gov/?sat_phys_par
                         http://ssd.jpl.nasa.gov/?sat_elem

 SATELLITE PHYSICAL PROPERTIES:
  Mean Radius (km)        = 764.5  +- 2     Density (g/cm^3)  =  1.233 +- 0.010
  Mass (10^19 kg)         = 230.9           Geometric Albedo  =  0.6
  GM (km^3/s^2)           = 153.94 +- 0.16  V(1,0)            = +0.1

 SATELLITE ORBITAL DATA (mean values referred to local Laplace plane):
  Semi-major axis, a (km) = 527.07(10^3)    Orbital period    = 4.518 d
  Eccentricity, e         = 0.001           Rotational period = Synchronous
  Inclination, i  (deg)   = 0.331
*******************************************************************************
 
 
*******************************************************************************
Ephemeris / WWW_USER Sun Oct 11 11:00:09 2020 Pasadena, USA      / Horizons
*******************************************************************************
Target body name: Rhea (605)                      {source: sat427l_merged_DE438}
Center body name: Saturn (699)                    {source: sat427l_merged_DE438}
Center-site name: BODY CENTER
*******************************************************************************
Start time      : A.D. 2020-Oct-11 00:00:00.0000 TDB
Stop  time      : A.D. 2020-Nov-10 00:00:00.0000 TDB
Step-size       : 1440 minutes
*******************************************************************************
Center geodetic : 0.00000000,0.00000000,0.0000000 {W-lon(deg),Lat(deg),Alt(km)}
Center cylindric: 0.00000000,0.00000000,0.0000000 {W-lon(deg),Dxy(km),Dz(km)}
Center radii    : 60268.0 x 60268.0 x 54364.0 km  {Equator, meridian, pole}    
Output units    : KM-S
Output type     : GEOMETRIC cartesian states
Output format   : 2 (position and velocity)
Reference frame : Ecliptic of J2000.0
*******************************************************************************
JDTDB
   X     Y     Z
   VX    VY    VZ
*******************************************************************************
$$SOE
2459133.500000000 = A.D. 2020-Oct-11 00:00:00.0000 TDB 
 X =-1.878042688372102E+05 Y = 4.434570249032883E+05 Z =-2.148954370897081E+05
 VX=-7.897276127848962E+00 VY=-2.387020286087481E+00 VZ= 1.962427177026306E+00
2459134.500000000 = A.D. 2020-Oct-12 00:00:00.0000 TDB 
 X =-5.169994305186918E+05 Y =-6.595337809479841E+04 Z = 8.124821281181222E+04
 VX= 1.542905751009574E+00 VY=-7.443729646683642E+00 VZ= 3.752774773384243E+00
2459135.500000000 = A.D. 2020-Oct-13 00:00:00.0000 TDB 
 X = 1.259668558766710E+03 Y =-4.669675087041854E+05 Z = 2.440648280050992E+05
 VX= 8.460040094820037E+00 VY=-2.893922678773285E-01 VZ=-6.138451000981847E-01
2459136.500000000 = A.D. 2020-Oct-14 00:00:00.0000 TDB 
 X = 5.168308040556786E+05 Y =-1.006428565141794E+05 Z = 5.880859742323057E+03
 VX= 1.478956829986086E+00 VY= 7.355234808173346E+00 VZ=-3.979864272227042E+00
2459137.500000000 = A.D. 2020-Oct-15 00:00:00.0000 TDB 
 X = 1.820351306014672E+05 Y = 4.313771207271659E+05 Z =-2.420360825506242E+05
 VX=-7.930720360647955E+00 VY= 2.906400568576279E+00 VZ=-8.024926956122610E-01
2459138.500000000 = A.D. 2020-Oct-16 00:00:00.0000 TDB 
 X =-4.522933284287277E+05 Y = 2.552846572092234E+05 Z =-9.258334996617450E+04
 VX=-4.311327954652459E+00 VY=-6.300231208755937E+00 VZ= 3.684411336534572E+00
2459139.500000000 = A.D. 2020-Oct-17 00:00:00.0000 TDB 
 X =-3.454273335440381E+05 Y =-3.392524718582599E+05 Z = 2.086436774549840E+05
 VX= 6.377136533089627E+00 VY=-5.173015264724917E+00 VZ= 2.128281769036197E+00
2459140.500000000 = A.D. 2020-Oct-18 00:00:00.0000 TDB 
 X = 3.278466621399280E+05 Y =-3.767237912702091E+05 Z = 1.673440105691061E+05
 VX= 6.608564816131003E+00 VY= 4.455009414841375E+00 VZ=-2.927323793764013E+00
2459141.500000000 = A.D. 2020-Oct-19 00:00:00.0000 TDB 
 X = 4.617073343890299E+05 Y = 2.052149095916323E+05 Z =-1.490715892906392E+05
 VX=-4.026439158916820E+00 VY= 6.765877721574083E+00 VZ=-3.173868430672521E+00
2459142.500000000 = A.D. 2020-Oct-20 00:00:00.0000 TDB 
 X =-1.636711297880478E+05 Y = 4.501228629971343E+05 Z =-2.205779239365578E+05
 VX=-8.035088216463745E+00 VY=-2.037316997698043E+00 VZ= 1.792097268190941E+00
2459143.500000000 = A.D. 2020-Oct-21 00:00:00.0000 TDB 
 X =-5.209925770956591E+05 Y =-4.345340370457141E+04 Z = 6.984519139185683E+04
 VX= 1.138200486607181E+00 VY=-7.487099829347648E+00 VZ= 3.812289375942453E+00
2459144.500000000 = A.D. 2020-Oct-22 00:00:00.0000 TDB 
 X =-2.419603760529697E+04 Y =-4.655763570766526E+05 Z = 2.456543117848430E+05
 VX= 8.450323825141041E+00 VY=-6.542034041327847E-01 VZ=-4.221780621511082E-01
2459145.500000000 = A.D. 2020-Oct-23 00:00:00.0000 TDB 
 X = 5.117770520694494E+05 Y =-1.227927980179134E+05 Z = 1.792462339468058E+04
 VX= 1.882777808208469E+00 VY= 7.266949926334211E+00 VZ=-3.970449298294299E+00
2459146.500000000 = A.D. 2020-Oct-24 00:00:00.0000 TDB 
 X = 2.058234515539606E+05 Y = 4.220577183269074E+05 Z =-2.393279262996204E+05
 VX=-7.778706657969408E+00 VY= 3.241500259413163E+00 VZ=-9.915845471264155E-01
2459147.500000000 = A.D. 2020-Oct-25 00:00:00.0000 TDB 
 X =-4.387121285774921E+05 Y = 2.740667983456443E+05 Z =-1.036426770540010E+05
 VX=-4.660162860728896E+00 VY=-6.092591494605786E+00 VZ= 3.607576620138005E+00
2459148.500000000 = A.D. 2020-Oct-26 00:00:00.0000 TDB 
 X =-3.643700392086242E+05 Y =-3.231482008094646E+05 Z = 2.019456779598684E+05
 VX= 6.098263878498678E+00 VY=-5.432719047897780E+00 VZ= 2.289489176476346E+00
2459149.500000000 = A.D. 2020-Oct-27 00:00:00.0000 TDB 
 X = 3.074271214732947E+05 Y =-3.896892014046035E+05 Z = 1.759836309779428E+05
 VX= 6.859000704724039E+00 VY= 4.154797855467964E+00 VZ=-2.793111631298169E+00
2459150.500000000 = A.D. 2020-Oct-28 00:00:00.0000 TDB 
 X = 4.732456623520008E+05 Y = 1.846454756997924E+05 Z =-1.393643585544682E+05
 VX=-3.660543165823532E+00 VY= 6.918552081679335E+00 VZ=-3.287027376284916E+00
2459151.500000000 = A.D. 2020-Oct-29 00:00:00.0000 TDB 
 X =-1.392523333235184E+05 Y = 4.557963000639321E+05 Z =-2.257683399670701E+05
 VX=-8.152253039065680E+00 VY=-1.683064885539671E+00 VZ= 1.617490174277593E+00
2459152.500000000 = A.D. 2020-Oct-30 00:00:00.0000 TDB 
 X =-5.238547220226948E+05 Y =-2.068791256488271E+04 Z = 5.819964202267601E+04
 VX= 7.286537871777157E-01 VY=-7.511978420065791E+00 VZ= 3.862595580377528E+00
2459153.500000000 = A.D. 2020-Oct-31 00:00:00.0000 TDB 
 X =-4.981890831820843E+04 Y =-4.630163374346945E+05 Z = 2.466491156944129E+05
 VX= 8.421449432789554E+00 VY=-1.019452601110193E+00 VZ=-2.285216143235669E-01
2459154.500000000 = A.D. 2020-Nov-01 00:00:00.0000 TDB 
 X = 5.054394213304950E+05 Y =-1.446357072453513E+05 Z = 2.992587992798935E+04
 VX= 2.283278072174626E+00 VY= 7.161847712976835E+00 VZ=-3.951953824980530E+00
2459155.500000000 = A.D. 2020-Nov-02 00:00:00.0000 TDB 
 X = 2.290537042811249E+05 Y = 4.117341291227210E+05 Z =-2.360437446524401E+05
 VX=-7.609035783220830E+00 VY= 3.567966308692705E+00 VZ=-1.177775244245985E+00
2459156.500000000 = A.D. 2020-Nov-03 00:00:00.0000 TDB 
 X =-4.241724112342082E+05 Y = 2.920586646065182E+05 Z =-1.143763048973287E+05
 VX=-4.996567829162847E+00 VY=-5.872048189823455E+00 VZ= 3.522861092922811E+00
2459157.500000000 = A.D. 2020-Nov-04 00:00:00.0000 TDB 
 X =-3.823694545331725E+05 Y =-3.064040853081893E+05 Z = 1.948273085130946E+05
 VX= 5.805862965014701E+00 VY=-5.677992085942300E+00 VZ= 2.444390234884154E+00
2459158.500000000 = A.D. 2020-Nov-05 00:00:00.0000 TDB 
 X = 2.863108988967133E+05 Y =-4.017997593510649E+05 Z = 1.842398539709561E+05
 VX= 7.092491145290596E+00 VY= 3.843810474280177E+00 VZ=-2.651732351668295E+00
2459159.500000000 = A.D. 2020-Nov-06 00:00:00.0000 TDB 
 X = 4.837938037266681E+05 Y = 1.634796743001857E+05 Z =-1.292562129336118E+05
 VX=-3.283696345340289E+00 VY= 7.055110623209402E+00 VZ=-3.392766022320423E+00
2459160.500000000 = A.D. 2020-Nov-07 00:00:00.0000 TDB 
 X =-1.143270131473755E+05 Y = 4.603655081332810E+05 Z =-2.304282552399755E+05
 VX=-8.251576419739369E+00 VY=-1.323363965886349E+00 VZ= 1.438424362308802E+00
2459161.500000000 = A.D. 2020-Nov-08 00:00:00.0000 TDB 
 X =-5.253783462057264E+05 Y = 2.108301042970239E+03 Z = 4.641620846161245E+04
 VX= 3.182992990506475E-01 VY=-7.519926575263558E+00 VZ= 3.904118826142776E+00
2459162.500000000 = A.D. 2020-Nov-09 00:00:00.0000 TDB 
 X =-7.504609679017766E+04 Y =-4.593485785623831E+05 Z = 2.470278028528079E+05
 VX= 8.373804308811430E+00 VY=-1.380155547809547E+00 VZ=-3.554101181755975E-02
2459163.500000000 = A.D. 2020-Nov-10 00:00:00.0000 TDB 
 X = 4.980559559077359E+05 Y =-1.660207417442341E+05 Z = 4.178230117152556E+04
 VX= 2.676132950350278E+00 VY= 7.038710415082724E+00 VZ=-3.923321063596527E+00
$$EOE
*******************************************************************************
Coordinate system description:

  Ecliptic at the standard reference epoch

    Reference epoch: J2000.0
    X-Y plane: adopted Earth orbital plane at the reference epoch
               Note: obliquity of 84381.448 arcseconds (IAU76) wrt ICRF equator
    X-axis   : ICRF
    Z-axis   : perpendicular to the X-Y plane in the directional (+ or -) sense
               of Earth's north pole at the reference epoch.

  Symbol meaning:

    JDTDB    Julian Day Number, Barycentric Dynamical Time
      X      X-component of position vector (km)
      Y      Y-component of position vector (km)
      Z      Z-component of position vector (km)
      VX     X-component of velocity vector (km/sec)                           
      VY     Y-component of velocity vector (km/sec)                           
      VZ     Z-component of velocity vector (km/sec)                           

Geometric states/elements have no aberrations applied.


 Computations by ...
     Solar System Dynamics Group, Horizons On-Line Ephemeris System
     4800 Oak Grove Drive, Jet Propulsion Laboratory
     Pasadena, CA  91109   USA
     Information  : https://ssd.jpl.nasa.gov/
     Documentation: https://ssd.jpl.nasa.gov/?horizons_doc
     Connect      : https://ssd.jpl.nasa.gov/?horizons (browser)
                    telnet ssd.jpl.nasa.gov 6775       (command-line)
                    e-mail command interface available
                    Script and CGI interfaces available
     Author       : Jon.D.Giorgini@jpl.nasa.gov
*******************************************************************************
